{
  "type": "FeatureCollection",
  "features": [
    {
      "type": "Feature",
      "properties": {
        "norad_id": 66554,
        "name": "GLOBAL-33",
        "group": "last-30-days",
        "lat": -31.89861634359394,
        "lon": -61.76655302838696,
        "alt_km": 476.9805548638242,
        "timestamp": "2025-12-09T16:56:35.359229+00:00",
        "meta_object_name": "GLOBAL-33",
        "meta_object_id": "2025-267A",
        "meta_epoch": "2025-12-08T13:19:37.894080",
        "meta_mean_motion": 15.31498164,
        "meta_eccentricity": 0.00047931,
        "meta_inclination": 42.0201,
        "meta_ra_of_asc_node": 81.1482,
        "meta_arg_of_pericenter": 22.7031,
        "meta_mean_anomaly": 337.4018,
        "meta_ephemeris_type": 0,
        "meta_classification_type": "U",
        "meta_norad_cat_id": 66554,
        "meta_element_set_no": 999,
        "meta_rev_at_epoch": 276,
        "meta_bstar": 0.00059832068,
        "meta_mean_motion_dot": 0.00018392,
        "meta_mean_motion_ddot": 0,
        "tle_line1": "1 66554U 25267A   25342.55529970  .00018392  00000+0  59832-3 0  9998",
        "tle_line2": "2 66554  42.0201  81.1482 0004793  22.7031 337.4018 15.31498164  2762"
      },
      "geometry": {
        "type": "Point",
        "coordinates": [
          -61.76655302838696,
          -31.89861634359394
        ]
      }
    },
    {
      "type": "Feature",
      "properties": {
        "norad_id": 66555,
        "name": "ELECTRON KICK STAGE R/B",
        "group": "last-30-days",
        "lat": -40.21951314463922,
        "lon": 4.460057927477205,
        "alt_km": 472.38856773271436,
        "timestamp": "2025-12-09T16:56:35.359241+00:00",
        "meta_object_name": "ELECTRON KICK STAGE R/B",
        "meta_object_id": "2025-267B",
        "meta_epoch": "2025-12-09T06:19:11.123616",
        "meta_mean_motion": 15.32547454,
        "meta_eccentricity": 0.00067878,
        "meta_inclination": 42.0196,
        "meta_ra_of_asc_node": 76.9385,
        "meta_arg_of_pericenter": 26.0094,
        "meta_mean_anomaly": 334.1083,
        "meta_ephemeris_type": 0,
        "meta_classification_type": "U",
        "meta_norad_cat_id": 66555,
        "meta_element_set_no": 999,
        "meta_rev_at_epoch": 287,
        "meta_bstar": 0.00099006824,
        "meta_mean_motion_dot": 0.00031697,
        "meta_mean_motion_ddot": 0,
        "tle_line1": "1 66555U 25267B   25343.26332319  .00031697  00000+0  99007-3 0  9998",
        "tle_line2": "2 66555  42.0196  76.9385 0006787  26.0094 334.1083 15.32547454  2877"
      },
      "geometry": {
        "type": "Point",
        "coordinates": [
          4.460057927477205,
          -40.21951314463922
        ]
      }
    },
    {
      "type": "Feature",
      "properties": {
        "norad_id": 66557,
        "name": "STARLINK-35699",
        "group": "last-30-days",
        "lat": 37.60483669292258,
        "lon": -165.31293908032774,
        "alt_km": 409.70246841819517,
        "timestamp": "2025-12-09T16:56:35.359252+00:00",
        "meta_object_name": "STARLINK-35699",
        "meta_object_id": "2025-268A",
        "meta_epoch": "2025-12-09T12:00:02.000160",
        "meta_mean_motion": 15.50517321,
        "meta_eccentricity": 9.56e-05,
        "meta_inclination": 43.0005,
        "meta_ra_of_asc_node": 140.1453,
        "meta_arg_of_pericenter": 269.2783,
        "meta_mean_anomaly": 83.343,
        "meta_ephemeris_type": 0,
        "meta_classification_type": "U",
        "meta_norad_cat_id": 66557,
        "meta_element_set_no": 999,
        "meta_rev_at_epoch": 414,
        "meta_bstar": 0.00134,
        "meta_mean_motion_dot": 0.0007889,
        "meta_mean_motion_ddot": 0,
        "tle_line1": "1 66557U 25268A   25343.50002315  .00078890  00000+0  13400-2 0  9996",
        "tle_line2": "2 66557  43.0005 140.1453 0000956 269.2783  83.3430 15.50517321  4148"
      },
      "geometry": {
        "type": "Point",
        "coordinates": [
          -165.31293908032774,
          37.60483669292258
        ]
      }
    },
    {
      "type": "Feature",
      "properties": {
        "norad_id": 66558,
        "name": "STARLINK-35695",
        "group": "last-30-days",
        "lat": 38.31589521697237,
        "lon": -163.07148920920045,
        "alt_km": 409.67450744580765,
        "timestamp": "2025-12-09T16:56:35.359264+00:00",
        "meta_object_name": "STARLINK-35695",
        "meta_object_id": "2025-268B",
        "meta_epoch": "2025-12-09T12:00:02.000160",
        "meta_mean_motion": 15.50509153,
        "meta_eccentricity": 0.0001065,
        "meta_inclination": 43.0005,
        "meta_ra_of_asc_node": 140.1406,
        "meta_arg_of_pericenter": 272.3754,
        "meta_mean_anomaly": 82.157,
        "meta_ephemeris_type": 0,
        "meta_classification_type": "U",
        "meta_norad_cat_id": 66558,
        "meta_element_set_no": 999,
        "meta_rev_at_epoch": 414,
        "meta_bstar": 0.0013492,
        "meta_mean_motion_dot": 0.00079416,
        "meta_mean_motion_ddot": 0,
        "tle_line1": "1 66558U 25268B   25343.50002315  .00079416  00000+0  13492-2 0  9993",
        "tle_line2": "2 66558  43.0005 140.1406 0001065 272.3754  82.1570 15.50509153  4148"
      },
      "geometry": {
        "type": "Point",
        "coordinates": [
          -163.07148920920045,
          38.31589521697237
        ]
      }
    },
    {
      "type": "Feature",
      "properties": {
        "norad_id": 66559,
        "name": "STARLINK-35419",
        "group": "last-30-days",
        "lat": 39.0207964818729,
        "lon": -160.65212552271367,
        "alt_km": 410.17525897628,
        "timestamp": "2025-12-09T16:56:35.359275+00:00",
        "meta_object_name": "STARLINK-35419",
        "meta_object_id": "2025-268C",
        "meta_epoch": "2025-12-09T12:00:02.000160",
        "meta_mean_motion": 15.50630878,
        "meta_eccentricity": 0.0002093,
        "meta_inclination": 43.0004,
        "meta_ra_of_asc_node": 140.1358,
        "meta_arg_of_pericenter": 263.6275,
        "meta_mean_anomaly": 92.8616,
        "meta_ephemeris_type": 0,
        "meta_classification_type": "U",
        "meta_norad_cat_id": 66559,
        "meta_element_set_no": 999,
        "meta_rev_at_epoch": 414,
        "meta_bstar": -0.0021812,
        "meta_mean_motion_dot": -0.00126502,
        "meta_mean_motion_ddot": 0,
        "tle_line1": "1 66559U 25268C   25343.50002315 -.00126502  00000+0 -21812-2 0  9990",
        "tle_line2": "2 66559  43.0004 140.1358 0002093 263.6275  92.8616 15.50630878  4145"
      },
      "geometry": {
        "type": "Point",
        "coordinates": [
          -160.65212552271367,
          39.0207964818729
        ]
      }
    },
    {
      "type": "Feature",
      "properties": {
        "norad_id": 66560,
        "name": "STARLINK-35411",
        "group": "last-30-days",
        "lat": 39.64457866570022,
        "lon": -158.3035867330147,
        "alt_km": 410.07884230651325,
        "timestamp": "2025-12-09T16:56:35.359285+00:00",
        "meta_object_name": "STARLINK-35411",
        "meta_object_id": "2025-268D",
        "meta_epoch": "2025-12-09T12:00:02.000160",
        "meta_mean_motion": 15.50631037,
        "meta_eccentricity": 0.0002082,
        "meta_inclination": 43.0002,
        "meta_ra_of_asc_node": 140.1314,
        "meta_arg_of_pericenter": 264.6032,
        "meta_mean_anomaly": 93.8077,
        "meta_ephemeris_type": 0,
        "meta_classification_type": "U",
        "meta_norad_cat_id": 66560,
        "meta_element_set_no": 999,
        "meta_rev_at_epoch": 414,
        "meta_bstar": -0.0022078,
        "meta_mean_motion_dot": -0.00128015,
        "meta_mean_motion_ddot": 0,
        "tle_line1": "1 66560U 25268D   25343.50002315 -.00128015  00000+0 -22078-2 0  9998",
        "tle_line2": "2 66560  43.0002 140.1314 0002082 264.6032  93.8077 15.50631037  4147"
      },
      "geometry": {
        "type": "Point",
        "coordinates": [
          -158.3035867330147,
          39.64457866570022
        ]
      }
    },
    {
      "type": "Feature",
      "properties": {
        "norad_id": 66561,
        "name": "STARLINK-35305",
        "group": "last-30-days",
        "lat": 40.74165210047416,
        "lon": -153.50664183216452,
        "alt_km": 409.92297580485047,
        "timestamp": "2025-12-09T16:56:35.359295+00:00",
        "meta_object_name": "STARLINK-35305",
        "meta_object_id": "2025-268E",
        "meta_epoch": "2025-12-09T12:00:02.000160",
        "meta_mean_motion": 15.50592194,
        "meta_eccentricity": 0.0001991,
        "meta_inclination": 43.0004,
        "meta_ra_of_asc_node": 140.122,
        "meta_arg_of_pericenter": 263.5766,
        "meta_mean_anomaly": 98.6829,
        "meta_ephemeris_type": 0,
        "meta_classification_type": "U",
        "meta_norad_cat_id": 66561,
        "meta_element_set_no": 999,
        "meta_rev_at_epoch": 409,
        "meta_bstar": -0.0012509,
        "meta_mean_motion_dot": -0.0007308,
        "meta_mean_motion_ddot": 0,
        "tle_line1": "1 66561U 25268E   25343.50002315 -.00073080  00000+0 -12509-2 0  9998",
        "tle_line2": "2 66561  43.0004 140.1220 0001991 263.5766  98.6829 15.50592194  4098"
      },
      "geometry": {
        "type": "Point",
        "coordinates": [
          -153.50664183216452,
          40.74165210047416
        ]
      }
    }
  ]
}